[
    {
        "Altitude(m)": 568385.0087833724,
        "Argument of Periapsis(deg)": 0.006622991110713501,
        "Eccentricity": 0.0,
        "Inclination(deg)": 53.0,
        "Latitude(deg)": -44.50142431664435,
        "Longitude(deg)": -93.33859529076985,
        "Mean Anomaly(deg)": -118.99930713242239,
        "RAAN(deg)": 139.99014336852804,
        "Satellite Name": "Starlink Shell 1 630",
        "Satellite Number": 630,
        "Semi-Major Axis(m)": 6931778.249405717,
        "Time(s)": 190
    },
    {
        "Altitude(m)": 568522.9623891492,
        "Argument of Periapsis(deg)": 0.0069715695902247375,
        "Eccentricity": 0.0,
        "Inclination(deg)": 53.0,
        "Latitude(deg)": -44.837260424421466,
        "Longitude(deg)": -92.63997507948837,
        "Mean Anomaly(deg)": -118.37247592886571,
        "RAAN(deg)": 139.98962459845052,
        "Satellite Name": "Starlink Shell 1 630",
        "Satellite Number": 630,
        "Semi-Major Axis(m)": 6931778.249405717,
        "Time(s)": 200
    },
    {
        "Altitude(m)": 568658.7537788755,
        "Argument of Periapsis(deg)": 0.007320148069735974,
        "Eccentricity": 0.0,
        "Inclination(deg)": 53.0,
        "Latitude(deg)": -45.16822278156906,
        "Longitude(deg)": -91.93279349457148,
        "Mean Anomaly(deg)": -117.74564472530896,
        "RAAN(deg)": 139.98910582837308,
        "Satellite Name": "Starlink Shell 1 630",
        "Satellite Number": 630,
        "Semi-Major Axis(m)": 6931778.249405717,
        "Time(s)": 210
    },
    {
        "Altitude(m)": 568792.3294250752,
        "Argument of Periapsis(deg)": 0.007668726549247212,
        "Eccentricity": 0.0,
        "Inclination(deg)": 53.0,
        "Latitude(deg)": -45.49419976928283,
        "Longitude(deg)": -91.21698010311765,
        "Mean Anomaly(deg)": -117.11881352175219,
        "RAAN(deg)": 139.9885870582956,
        "Satellite Name": "Starlink Shell 1 630",
        "Satellite Number": 630,
        "Semi-Major Axis(m)": 6931778.249405717,
        "Time(s)": 220
    },
    {
        "Altitude(m)": 568923.636638317,
        "Argument of Periapsis(deg)": 0.00801730502875845,
        "Eccentricity": 0.0,
        "Inclination(deg)": 53.0,
        "Latitude(deg)": -45.81507825060967,
        "Longitude(deg)": -90.49247075405248,
        "Mean Anomaly(deg)": -116.49198231819551,
        "RAAN(deg)": 139.98806828821813,
        "Satellite Name": "Starlink Shell 1 630",
        "Satellite Number": 630,
        "Semi-Major Axis(m)": 6931778.249405717,
        "Time(s)": 230
    },
    {
        "Altitude(m)": 569052.6235903859,
        "Argument of Periapsis(deg)": 0.008365883508269684,
        "Eccentricity": 0.0,
        "Inclination(deg)": 53.0,
        "Latitude(deg)": -46.130743640828626,
        "Longitude(deg)": -89.75920756545908,
        "Mean Anomaly(deg)": -115.86515111463876,
        "RAAN(deg)": 139.98754951814064,
        "Satellite Name": "Starlink Shell 1 630",
        "Satellite Number": 630,
        "Semi-Major Axis(m)": 6931778.249405717,
        "Time(s)": 240
    },
    {
        "Altitude(m)": 569179.2393370083,
        "Argument of Periapsis(deg)": 0.008714461987780921,
        "Eccentricity": 0.0,
        "Inclination(deg)": 53.0,
        "Latitude(deg)": -46.44107998655692,
        "Longitude(deg)": -89.01714043858097,
        "Mean Anomaly(deg)": -115.23831991108213,
        "RAAN(deg)": 139.9870307480632,
        "Satellite Name": "Starlink Shell 1 630",
        "Satellite Number": 630,
        "Semi-Major Axis(m)": 6931778.249405717,
        "Time(s)": 250
    },
    {
        "Altitude(m)": 569303.433840208,
        "Argument of Periapsis(deg)": 0.009063040467292158,
        "Eccentricity": 0.0,
        "Inclination(deg)": 53.0,
        "Latitude(deg)": -46.745970053967795,
        "Longitude(deg)": -88.26622707129842,
        "Mean Anomaly(deg)": -114.61148870752547,
        "RAAN(deg)": 139.98651197798569,
        "Satellite Name": "Starlink Shell 1 630",
        "Satellite Number": 630,
        "Semi-Major Axis(m)": 6931778.249405717,
        "Time(s)": 260
    },
    {
        "Altitude(m)": 569425.1579902503,
        "Argument of Periapsis(deg)": 0.009411618946803396,
        "Eccentricity": 0.0,
        "Inclination(deg)": 53.0,
        "Latitude(deg)": -47.045295426485374,
        "Longitude(deg)": -87.50643298226468,
        "Mean Anomaly(deg)": -113.98465750396863,
        "RAAN(deg)": 139.98599320790825,
        "Satellite Name": "Starlink Shell 1 630",
        "Satellite Number": 630,
        "Semi-Major Axis(m)": 6931778.249405717,
        "Time(s)": 270
    },
    {
        "Altitude(m)": 569544.3636271482,
        "Argument of Periapsis(deg)": 0.009760197426314633,
        "Eccentricity": 0.0,
        "Inclination(deg)": 53.0,
        "Latitude(deg)": -47.33893661229774,
        "Longitude(deg)": -86.73773305662814,
        "Mean Anomaly(deg)": -113.35782630041193,
        "RAAN(deg)": 139.98547443783076,
        "Satellite Name": "Starlink Shell 1 630",
        "Satellite Number": 630,
        "Semi-Major Axis(m)": 6931778.249405717,
        "Time(s)": 280
    },
    {
        "Altitude(m)": 569661.0035617497,
        "Argument of Periapsis(deg)": 0.01010877590582587,
        "Eccentricity": 0.0,
        "Inclination(deg)": 53.0,
        "Latitude(deg)": -47.62677316200105,
        "Longitude(deg)": -85.96011158536493,
        "Mean Anomaly(deg)": -112.73099509685517,
        "RAAN(deg)": 139.98495566775327,
        "Satellite Name": "Starlink Shell 1 630",
        "Satellite Number": 630,
        "Semi-Major Axis(m)": 6931778.249405717,
        "Time(s)": 290
    },
    {
        "Altitude(m)": 569775.0315963972,
        "Argument of Periapsis(deg)": 0.010457354385337106,
        "Eccentricity": 0.0,
        "Inclination(deg)": 53.0,
        "Latitude(deg)": -47.90868379664743,
        "Longitude(deg)": -85.17356230860197,
        "Mean Anomaly(deg)": -112.10416389329852,
        "RAAN(deg)": 139.9844368976758,
        "Satellite Name": "Starlink Shell 1 630",
        "Satellite Number": 630,
        "Semi-Major Axis(m)": 6931778.249405717,
        "Time(s)": 300
    },
    {
        "Altitude(m)": 569886.4025451316,
        "Argument of Periapsis(deg)": 0.010805932864848343,
        "Eccentricity": 0.0,
        "Inclination(deg)": 53.0,
        "Latitude(deg)": -48.18454654642978,
        "Longitude(deg)": -84.37808997301855,
        "Mean Anomaly(deg)": -111.47733268974187,
        "RAAN(deg)": 139.98391812759837,
        "Satellite Name": "Starlink Shell 1 630",
        "Satellite Number": 630,
        "Semi-Major Axis(m)": 6931778.249405717,
        "Time(s)": 310
    },
    {
        "Altitude(m)": 569995.0722534348,
        "Argument of Periapsis(deg)": 0.01115451134435958,
        "Eccentricity": 0.0,
        "Inclination(deg)": 53.0,
        "Latitude(deg)": -48.45423890018495,
        "Longitude(deg)": -83.57371037450221,
        "Mean Anomaly(deg)": -110.8505014861851,
        "RAAN(deg)": 139.98339935752085,
        "Satellite Name": "Starlink Shell 1 630",
        "Satellite Number": 630,
        "Semi-Major Axis(m)": 6931778.249405717,
        "Time(s)": 320
    },
    {
        "Altitude(m)": 570100.9976175295,
        "Argument of Periapsis(deg)": 0.011503089823870818,
        "Eccentricity": 0.0,
        "Inclination(deg)": 53.0,
        "Latitude(deg)": -48.71763796583999,
        "Longitude(deg)": -82.76045039557407,
        "Mean Anomaly(deg)": -110.22367028262839,
        "RAAN(deg)": 139.9828805874434,
        "Satellite Name": "Starlink Shell 1 630",
        "Satellite Number": 630,
        "Semi-Major Axis(m)": 6931778.249405717,
        "Time(s)": 330
    },
    {
        "Altitude(m)": 570204.1366031927,
        "Argument of Periapsis(deg)": 0.011851668303382053,
        "Eccentricity": 0.0,
        "Inclination(deg)": 53.0,
        "Latitude(deg)": -48.97462064186374,
        "Longitude(deg)": -81.93834954681188,
        "Mean Anomaly(deg)": -109.59683907907159,
        "RAAN(deg)": 139.98236181736593,
        "Satellite Name": "Starlink Shell 1 630",
        "Satellite Number": 630,
        "Semi-Major Axis(m)": 6931778.249405717,
        "Time(s)": 340
    },
    {
        "Altitude(m)": 570304.4482641134,
        "Argument of Periapsis(deg)": 0.012200246782893292,
        "Eccentricity": 0.0,
        "Inclination(deg)": 53.0,
        "Latitude(deg)": -49.22506379971232,
        "Longitude(deg)": -81.10745998260478,
        "Mean Anomaly(deg)": -108.97000787551491,
        "RAAN(deg)": 139.98184304728844,
        "Satellite Name": "Starlink Shell 1 630",
        "Satellite Number": 630,
        "Semi-Major Axis(m)": 6931778.249405717,
        "Time(s)": 350
    },
    {
        "Altitude(m)": 570401.8927597271,
        "Argument of Periapsis(deg)": 0.012548825262404526,
        "Eccentricity": 0.0,
        "Inclination(deg)": 53.0,
        "Latitude(deg)": -49.468844477181655,
        "Longitude(deg)": -80.26784649993155,
        "Mean Anomaly(deg)": -108.34317667195826,
        "RAAN(deg)": 139.98132427721097,
        "Satellite Name": "Starlink Shell 1 630",
        "Satellite Number": 630,
        "Semi-Major Axis(m)": 6931778.249405717,
        "Time(s)": 360
    },
    {
        "Altitude(m)": 570496.4313726089,
        "Argument of Periapsis(deg)": 0.012897403741915765,
        "Eccentricity": 0.0,
        "Inclination(deg)": 53.0,
        "Latitude(deg)": -49.705840082492095,
        "Longitude(deg)": -79.41958802862614,
        "Mean Anomaly(deg)": -107.71634546840151,
        "RAAN(deg)": 139.9808055071335,
        "Satellite Name": "Starlink Shell 1 630",
        "Satellite Number": 630,
        "Semi-Major Axis(m)": 6931778.249405717,
        "Time(s)": 370
    }
]